start=new Date('2022-07-23T00:00:00.000Z').valueOf();
sats=[{"PERIOD":"95.592","INCLINATION":"53.0543","SEMIMAJOR_AXIS":"6925.348","REF_FRAME":"TEME","ARG_OF_PERICENTER":"62.2639","TLE_LINE2":"2 48371  53.0543 185.7845 0001547  62.2639 297.8507 15.06400058 67255","TLE_LINE1":"1 48371U 21038U   22203.35424299  .00001800  00000-0  13972-3 0  9998","OBJECT_TYPE":"PAYLOAD","MEAN_MOTION_DDOT":"0.0000000000000","NORAD_CAT_ID":"48371","EPHEMERIS_TYPE":"0","MEAN_MOTION_DOT":"0.00001800","CENTER_NAME":"EARTH","BSTAR":"0.00013972000000","COUNTRY_CODE":"US","MEAN_ANOMALY":"297.8507","RCS_SIZE":"LARGE","MEAN_MOTION":"15.06400058","TIME_SYSTEM":"UTC","SITE":"AFETR","PERIAPSIS":"546.142","APOAPSIS":"548.285","FILE":"3519932","ECCENTRICITY":"0.00015470","GP_ID":"208669552","ELEMENT_SET_NO":"999","CLASSIFICATION_TYPE":"U","MEAN_ELEMENT_THEORY":"SGP4","EPOCH":"2022-07-22T08:30:06.594336","REV_AT_EPOCH":"6725","RA_OF_ASC_NODE":"185.7845","OBJECT_ID":"2021-038U","DECAY_DATE":null,"OBJECT_NAME":"STARLINK-2589","LAUNCH_DATE":"2021-05-04"},{"ELEMENT_SET_NO":"999","CLASSIFICATION_TYPE":"U","ECCENTRICITY":"0.00020450","GP_ID":"208669802","FILE":"3519932","APOAPSIS":"548.651","PERIAPSIS":"545.818","SITE":"AFETR","TIME_SYSTEM":"UTC","OBJECT_NAME":"STARLINK-2572","LAUNCH_DATE":"2021-05-04","DECAY_DATE":null,"EPOCH":"2022-07-22T10:00:21.566592","REV_AT_EPOCH":"6726","RA_OF_ASC_NODE":"185.5016","OBJECT_ID":"2021-038V","MEAN_ELEMENT_THEORY":"SGP4","OBJECT_TYPE":"PAYLOAD","TLE_LINE1":"1 48372U 21038V   22203.41691628  .00001556  00000-0  12338-3 0  9991","TLE_LINE2":"2 48372  53.0534 185.5016 0002045  54.9040 305.2140 15.06393115 67265","REF_FRAME":"TEME","ARG_OF_PERICENTER":"54.9040","PERIOD":"95.593","INCLINATION":"53.0534","SEMIMAJOR_AXIS":"6925.370","MEAN_MOTION":"15.06393115","RCS_SIZE":"LARGE","MEAN_ANOMALY":"305.2140","MEAN_MOTION_DOT":"0.00001556","CENTER_NAME":"EARTH","COUNTRY_CODE":"US","BSTAR":"0.00012338000000","MEAN_MOTION_DDOT":"0.0000000000000","EPHEMERIS_TYPE":"0","NORAD_CAT_ID":"48372"},{"NORAD_CAT_ID":"48373","EPHEMERIS_TYPE":"0","MEAN_MOTION_DDOT":"0.0000000000000","BSTAR":"0.00002255500000","COUNTRY_CODE":"US","MEAN_MOTION_DOT":"0.00000054","CENTER_NAME":"EARTH","MEAN_ANOMALY":"286.5826","RCS_SIZE":"LARGE","MEAN_MOTION":"15.06388322","SEMIMAJOR_AXIS":"6925.384","INCLINATION":"53.0532","PERIOD":"95.593","REF_FRAME":"TEME","ARG_OF_PERICENTER":"73.5339","TLE_LINE2":"2 48373  53.0532 185.8057 0001599  73.5339 286.5826 15.06388322 67258","TLE_LINE1":"1 48373U 21038W   22203.34687717  .00000054  00000-0  22555-4 0  9993","OBJECT_TYPE":"PAYLOAD","MEAN_ELEMENT_THEORY":"SGP4","RA_OF_ASC_NODE":"185.8057","OBJECT_ID":"2021-038W","REV_AT_EPOCH":"6725","EPOCH":"2022-07-22T08:19:30.187488","DECAY_DATE":null,"LAUNCH_DATE":"2021-05-04","OBJECT_NAME":"STARLINK-2609","TIME_SYSTEM":"UTC","SITE":"AFETR","PERIAPSIS":"546.142","APOAPSIS":"548.357","FILE":"3519932","GP_ID":"208670053","ECCENTRICITY":"0.00015990","ELEMENT_SET_NO":"999","CLASSIFICATION_TYPE":"U"},{"LAUNCH_DATE":"2021-05-04","OBJECT_NAME":"STARLINK-2604","DECAY_DATE":null,"RA_OF_ASC_NODE":"185.8141","OBJECT_ID":"2021-038X","REV_AT_EPOCH":"6725","EPOCH":"2022-07-22T08:12:49.961088","MEAN_ELEMENT_THEORY":"SGP4","GP_ID":"208670786","ECCENTRICITY":"0.00016270","ELEMENT_SET_NO":"999","CLASSIFICATION_TYPE":"U","APOAPSIS":"548.352","FILE":"3519932","PERIAPSIS":"546.098","TIME_SYSTEM":"UTC","SITE":"AFETR","MEAN_MOTION":"15.06396259","MEAN_ANOMALY":"294.4808","RCS_SIZE":"LARGE","BSTAR":"0.00005736000000","COUNTRY_CODE":"US","CENTER_NAME":"EARTH","MEAN_MOTION_DOT":"0.00000573","NORAD_CAT_ID":"48374","EPHEMERIS_TYPE":"0","MEAN_MOTION_DDOT":"0.0000000000000","TLE_LINE1":"1 48374U 21038X   22203.34224492  .00000573  00000-0  57360-4 0  9999","TLE_LINE2":"2 48374  53.0534 185.8141 0001627  65.6351 294.4808 15.06396259 67259","OBJECT_TYPE":"PAYLOAD","ARG_OF_PERICENTER":"65.6351","REF_FRAME":"TEME","SEMIMAJOR_AXIS":"6925.360","INCLINATION":"53.0534","PERIOD":"95.592"},{"OBJECT_ID":"2021-038Y","RA_OF_ASC_NODE":"185.8434","REV_AT_EPOCH":"6725","EPOCH":"2022-07-22T08:08:53.973312","MEAN_ELEMENT_THEORY":"SGP4","LAUNCH_DATE":"2021-05-04","OBJECT_NAME":"STARLINK-2603","DECAY_DATE":null,"PERIAPSIS":"546.173","SITE":"AFETR","TIME_SYSTEM":"UTC","ELEMENT_SET_NO":"999","CLASSIFICATION_TYPE":"U","GP_ID":"208669052","ECCENTRICITY":"0.00015570","APOAPSIS":"548.330","FILE":"3519932","COUNTRY_CODE":"US","BSTAR":"0.00002287900000","MEAN_MOTION_DOT":"0.00000059","CENTER_NAME":"EARTH","EPHEMERIS_TYPE":"0","NORAD_CAT_ID":"48375","MEAN_MOTION_DDOT":"0.0000000000000","MEAN_MOTION":"15.06387652","RCS_SIZE":"LARGE","MEAN_ANOMALY":"295.4813","REF_FRAME":"TEME","ARG_OF_PERICENTER":"64.6337","SEMIMAJOR_AXIS":"6925.386","INCLINATION":"53.0529","PERIOD":"95.593","OBJECT_TYPE":"PAYLOAD","TLE_LINE2":"2 48375  53.0529 185.8434 0001557  64.6337 295.4813 15.06387652 67258","TLE_LINE1":"1 48375U 21038Y   22203.33951358  .00000059  00000-0  22879-4 0  9993"},{"SEMIMAJOR_AXIS":"6925.368","INCLINATION":"53.0536","PERIOD":"95.593","ARG_OF_PERICENTER":"74.7676","REF_FRAME":"TEME","TLE_LINE1":"1 48376U 21038Z   22203.33582317  .00000386  00000-0  44848-4 0  9992","TLE_LINE2":"2 48376  53.0536 185.8672 0001677  74.7676 285.3498 15.06393563 67257","OBJECT_TYPE":"PAYLOAD","NORAD_CAT_ID":"48376","EPHEMERIS_TYPE":"0","MEAN_MOTION_DDOT":"0.0000000000000","BSTAR":"0.00004484800000","COUNTRY_CODE":"US","CENTER_NAME":"EARTH","MEAN_MOTION_DOT":"0.00000386","MEAN_ANOMALY":"285.3498","RCS_SIZE":"LARGE","MEAN_MOTION":"15.06393563","TIME_SYSTEM":"UTC","SITE":"AFETR","PERIAPSIS":"546.072","FILE":"3519932","APOAPSIS":"548.395","ECCENTRICITY":"0.00016770","GP_ID":"208669302","CLASSIFICATION_TYPE":"U","ELEMENT_SET_NO":"999","MEAN_ELEMENT_THEORY":"SGP4","RA_OF_ASC_NODE":"185.8672","OBJECT_ID":"2021-038Z","EPOCH":"2022-07-22T08:03:35.121888","REV_AT_EPOCH":"6725","DECAY_DATE":null,"OBJECT_NAME":"STARLINK-2610","LAUNCH_DATE":"2021-05-04"},{"OBJECT_TYPE":"PAYLOAD","TLE_LINE1":"1 48377U 21038AA  22203.66386467  .00000352  00000-0  42552-4 0  9990","TLE_LINE2":"2 48377  53.0534 184.3787 0001724  63.3584 296.7581 15.06394959 67307","INCLINATION":"53.0534","PERIOD":"95.592","SEMIMAJOR_AXIS":"6925.364","REF_FRAME":"TEME","ARG_OF_PERICENTER":"63.3584","RCS_SIZE":"LARGE","MEAN_ANOMALY":"296.7581","MEAN_MOTION":"15.06394959","MEAN_MOTION_DDOT":"0.0000000000000","EPHEMERIS_TYPE":"0","NORAD_CAT_ID":"48377","MEAN_MOTION_DOT":"0.00000352","CENTER_NAME":"EARTH","COUNTRY_CODE":"US","BSTAR":"0.00004255200000","APOAPSIS":"548.423","FILE":"3519932","CLASSIFICATION_TYPE":"U","ELEMENT_SET_NO":"999","ECCENTRICITY":"0.00017240","GP_ID":"208670554","SITE":"AFETR","TIME_SYSTEM":"UTC","PERIAPSIS":"546.035","DECAY_DATE":null,"LAUNCH_DATE":"2021-05-04","OBJECT_NAME":"STARLINK-2499","MEAN_ELEMENT_THEORY":"SGP4","EPOCH":"2022-07-22T15:55:57.907488","REV_AT_EPOCH":"6730","OBJECT_ID":"2021-038AA","RA_OF_ASC_NODE":"184.3787"},{"PERIAPSIS":"546.137","SITE":"AFETR","TIME_SYSTEM":"UTC","ELEMENT_SET_NO":"999","CLASSIFICATION_TYPE":"U","ECCENTRICITY":"0.00015710","GP_ID":"208646538","APOAPSIS":"548.313","FILE":"3519853","EPOCH":"2022-07-22T15:50:40.134336","REV_AT_EPOCH":"6789","RA_OF_ASC_NODE":"184.4099","OBJECT_ID":"2021-038AB","MEAN_ELEMENT_THEORY":"SGP4","OBJECT_NAME":"STARLINK-2526","LAUNCH_DATE":"2021-05-04","DECAY_DATE":null,"ARG_OF_PERICENTER":"65.7584","REF_FRAME":"TEME","INCLINATION":"53.0547","PERIOD":"95.592","SEMIMAJOR_AXIS":"6925.360","OBJECT_TYPE":"PAYLOAD","TLE_LINE2":"2 48378  53.0547 184.4099 0001571  65.7584 294.3569 15.06396264 67890","TLE_LINE1":"1 48378U 21038AB  22203.66018674  .00000437  00000-0  48259-4 0  9997","CENTER_NAME":"EARTH","MEAN_MOTION_DOT":"0.00000437","COUNTRY_CODE":"US","BSTAR":"0.00004825900000","MEAN_MOTION_DDOT":"0.0000000000000","EPHEMERIS_TYPE":"0","NORAD_CAT_ID":"48378","MEAN_MOTION":"15.06396264","RCS_SIZE":"LARGE","MEAN_ANOMALY":"294.3569"},{"PERIAPSIS":"546.161","TIME_SYSTEM":"UTC","SITE":"AFETR","GP_ID":"208669553","ECCENTRICITY":"0.00014980","CLASSIFICATION_TYPE":"U","ELEMENT_SET_NO":"999","APOAPSIS":"548.236","FILE":"3519932","OBJECT_ID":"2021-038AC","RA_OF_ASC_NODE":"183.5278","REV_AT_EPOCH":"6733","EPOCH":"2022-07-22T20:31:57.709920","MEAN_ELEMENT_THEORY":"SGP4","OBJECT_NAME":"STARLINK-2612","LAUNCH_DATE":"2021-05-04","DECAY_DATE":null,"ARG_OF_PERICENTER":"74.3308","REF_FRAME":"TEME","SEMIMAJOR_AXIS":"6925.333","INCLINATION":"53.0532","PERIOD":"95.592","TLE_LINE2":"2 48379  53.0532 183.5278 0001498  74.3308 285.7846 15.06404984 67332","TLE_LINE1":"1 48379U 21038AC  22203.85552905  .00000663  00000-0  63376-4 0  9997","OBJECT_TYPE":"PAYLOAD","BSTAR":"0.00006337600000","COUNTRY_CODE":"US","MEAN_MOTION_DOT":"0.00000663","CENTER_NAME":"EARTH","NORAD_CAT_ID":"48379","EPHEMERIS_TYPE":"0","MEAN_MOTION_DDOT":"0.0000000000000","MEAN_MOTION":"15.06404984","MEAN_ANOMALY":"285.7846","RCS_SIZE":"LARGE"},{"MEAN_MOTION_DDOT":"0.0000000000000","EPHEMERIS_TYPE":"0","NORAD_CAT_ID":"48380","MEAN_MOTION_DOT":"0.00000518","CENTER_NAME":"EARTH","COUNTRY_CODE":"US","BSTAR":"0.00005364400000","RCS_SIZE":"LARGE","MEAN_ANOMALY":"325.8230","MEAN_MOTION":"15.06402844","INCLINATION":"53.0536","PERIOD":"95.592","SEMIMAJOR_AXIS":"6925.340","ARG_OF_PERICENTER":"34.2872","REF_FRAME":"TEME","OBJECT_TYPE":"PAYLOAD","TLE_LINE2":"2 48380  53.0536 185.4962 0001756  34.2872 325.8230 15.06402844 67265","TLE_LINE1":"1 48380U 21038AD  22203.41596687  .00000518  00000-0  53644-4 0  9992","MEAN_ELEMENT_THEORY":"SGP4","REV_AT_EPOCH":"6726","EPOCH":"2022-07-22T09:58:59.537568","RA_OF_ASC_NODE":"185.4962","OBJECT_ID":"2021-038AD","DECAY_DATE":null,"OBJECT_NAME":"STARLINK-2614","LAUNCH_DATE":"2021-05-04","SITE":"AFETR","TIME_SYSTEM":"UTC","PERIAPSIS":"545.989","FILE":"3519932","APOAPSIS":"548.421","ELEMENT_SET_NO":"999","CLASSIFICATION_TYPE":"U","ECCENTRICITY":"0.00017560","GP_ID":"208669803"}];
